{
    "links": {
        "self": "http://www.neowsapp.com/rest/v1/neo/3949008?api_key=iIulBulltgU6a56xZRHN4H3l9WmuAYTsLGpBGhQ2"
    },
    "id": "3949008",
    "neo_reference_id": "3949008",
    "name": "(2019 YZ2)",
    "designation": "2019 YZ2",
    "nasa_jpl_url": "http://ssd.jpl.nasa.gov/sbdb.cgi?sstr=3949008",
    "absolute_magnitude_h": 22.7,
    "estimated_diameter": {
        "kilometers": {
            "estimated_diameter_min": 0.0766575574,
            "estimated_diameter_max": 0.1714115092
        },
        "meters": {
            "estimated_diameter_min": 76.6575573531,
            "estimated_diameter_max": 171.4115092306
        },
        "miles": {
            "estimated_diameter_min": 0.0476327831,
            "estimated_diameter_max": 0.1065101409
        },
        "feet": {
            "estimated_diameter_min": 251.5011804664,
            "estimated_diameter_max": 562.3737359442
        }
    },
    "is_potentially_hazardous_asteroid": false,
    "close_approach_data": [
        {
            "close_approach_date": "2019-12-08",
            "close_approach_date_full": "2019-Dec-08 09:45",
            "epoch_date_close_approach": 1575798300000,
            "relative_velocity": {
                "kilometers_per_second": "16.5747889478",
                "kilometers_per_hour": "59669.2402119925",
                "miles_per_hour": "37076.1453972795"
            },
            "miss_distance": {
                "astronomical": "0.0886769621",
                "lunar": "34.4953382569",
                "kilometers": "13265884.648230727",
                "miles": "8243038.4856369526"
            },
            "orbiting_body": "Earth"
        }
    ],
    "orbital_data": {
        "orbit_id": "3",
        "orbit_determination_date": "2020-01-04 05:13:37",
        "first_observation_date": "2019-12-24",
        "last_observation_date": "2020-01-04",
        "data_arc_in_days": 11,
        "observations_used": 29,
        "orbit_uncertainty": "9",
        "minimum_orbit_intersection": ".0311591",
        "jupiter_tisserand_invariant": "3.742",
        "epoch_osculation": "2458843.5",
        "eccentricity": ".5613619578849044",
        "semi_major_axis": "1.883999648269159",
        "inclination": "10.34513099594853",
        "ascending_node_longitude": "239.6191496843312",
        "orbital_period": "944.5384743203365",
        "perihelion_distance": ".8263939170623125",
        "perihelion_argument": "134.7816618095256",
        "aphelion_distance": "2.941605379476005",
        "perihelion_time": "2458786.707264116587",
        "mean_anomaly": "21.6458995307106",
        "mean_motion": ".3811385240384685",
        "equinox": "J2000",
        "orbit_class": {
            "orbit_class_type": "APO",
            "orbit_class_description": "Near-Earth asteroid orbits which cross the Earth’s orbit similar to that of 1862 Apollo",
            "orbit_class_range": "a (semi-major axis) > 1.0 AU; q (perihelion) < 1.017 AU"
        }
    },
    "is_sentry_object": false
}